ONEWEB-0012             
1 44057U 19010A   25034.33314129  .00000129  00000+0  30429-3 0  9993
2 44057  87.9133 328.2142 0001712 107.9882 252.1435 13.16595544285955
ONEWEB-0010             
1 44058U 19010B   25033.82649518  .00000054  00000+0  10672-3 0  9995
2 44058  87.9131 328.2968 0002084  89.6097 270.5273 13.16592326285901
ONEWEB-0008             
1 44059U 19010C   25033.77581608  .00000043  00000+0  77751-4 0  9995
2 44059  87.9130 328.3078 0001774  73.4666 286.6659 13.16596425286015
ONEWEB-0007             
1 44060U 19010D   25033.41421718  .00000125  00000+0  29709-3 0  9993
2 44060  87.9109 358.7347 0001780  95.1513 264.9820 13.15549930285665
ONEWEB-0006             
1 44061U 19010E   25033.87453197  .00000158  00000+0  38461-3 0  9991
2 44061  87.9100 358.6054 0001970  92.2609 267.8747 13.15549540285775
ONEWEB-0011             
1 44062U 19010F   25033.84443743 -.00000042  00000+0 -14443-3 0  9993
2 44062  87.9109 358.6159 0002093  82.8830 277.2539 13.15547696285762
ONEWEB-0013             
1 45131U 20008A   25033.74036923 -.00000705  00000+0 -20845-2 0  9995
2 45131  87.8655 153.4853 0000828 136.8259 223.2933 13.09411978240706
ONEWEB-0017             
1 45132U 20008B   25034.30887818 -.00000537  00000+0 -15741-2 0  9998
2 45132  87.8911 135.6878 0002027 105.8503 254.2848 13.10373020243385
